NORAD_CAT_ID,OBJECT_NAME,OBJECT_TYPE,EPOCH,MEAN_MOTION,ECCENTRICITY,INCLINATION,RA_OF_ASC_NODE,ARG_OF_PERICENTER,MEAN_ANOMALY,BSTAR,MEAN_MOTION_DOT,MEAN_MOTION_DDOT,TLE_LINE0,TLE_LINE1,TLE_LINE2,SEMIMAJOR_AXIS,PERIOD,APOGEE,PERIGEE,DECAYED
54203.0,STARLINK-5247,PAYLOAD,2022-12-27 06:00:00,15.70410186,0.000483,53.2167,205.932,269.1993,5.5524,-0.010011,-0.01117025,0.0,0 STARLINK-5247,1 54203U 22141AY  22361.25001157 -.01117025  00000-0 -10011-1 0  9992,2 54203  53.2167 205.9320 0004830 269.1993   5.5524 15.70410186  9738,6735.861,91.696,360.979,354.472,0.0
54203.0,STARLINK-5247,PAYLOAD,2022-12-27 14:00:01,15.69563336,0.0005371,53.2169,204.2891,269.3575,90.4888,-0.0098901,-0.01070552,0.0,0 STARLINK-5247,1 54203U 22141AY  22361.58334491 -.01070552  00000-0 -98901-2 0  9996,2 54203  53.2169 204.2891 0005371 269.3575  90.4888 15.69563336  1309,6738.283,91.745,363.768,356.529,0.0
54203.0,STARLINK-5247,PAYLOAD,2022-12-27 20:00:01,15.69054273,0.0001679,53.2169,203.061,257.4328,75.5294,-0.011504,-0.01220955,0.0,0 STARLINK-5247,1 54203U 22141AY  22361.83334491 -.01220955  00000-0 -11504-1 0  9991,2 54203  53.2169 203.0610 0001679 257.4328  75.5294 15.69054273  1306,6739.741,91.775,362.737,360.474,0.0
54203.0,STARLINK-5247,PAYLOAD,2022-12-28 06:00:00,15.67982724,0.0001072999999999,53.2171,201.0122,49.0665,117.9848,-0.011333,-0.01156969,0.0,0 STARLINK-5247,1 54203U 22141AY  22362.25001157 -.01156969  00000-0 -11333-1 0  9991,2 54203  53.2171 201.0122 0001073  49.0665 117.9848 15.67982724  9899,6742.811,91.838,365.4,363.953,0.0
54203.0,STARLINK-5247,PAYLOAD,2022-12-28 14:00:01,15.67165284,0.0001299,53.2172,199.3758,69.9611,179.237,-0.011634,-0.01149363,0.0,0 STARLINK-5247,1 54203U 22141AY  22362.58334491 -.01149363  00000-0 -11634-1 0  9991,2 54203  53.2172 199.3758 0001299  69.9611 179.2370 15.67165284  1309,6745.156,91.886,367.897,366.144,0.0
54203.0,STARLINK-5247,PAYLOAD,2022-12-28 22:00:00,15.66367417,0.0001121,53.2172,197.7443,88.5839,241.7728,-0.012275,-0.01171451,0.0,0 STARLINK-5247,1 54203U 22141AY  22362.91667824 -.01171451  00000-0 -12275-1 0  9992,2 54203  53.2172 197.7443 0001121  88.5839 241.7728 15.66367417  1308,6747.446,91.932,370.067,368.555,0.0
54203.0,STARLINK-5247,PAYLOAD,2022-12-29 06:00:02,15.65528646,0.0001102,53.2172,196.1104,61.5502,349.0749,-0.012286,-0.01136887,0.0,0 STARLINK-5247,1 54203U 22141AY  22363.25002315 -.01136887  00000-0 -12286-1 0  9994,2 54203  53.2172 196.1104 0001102  61.5502 349.0749 15.65528646 10051,6749.856,91.982,372.465,370.977,0.0
54203.0,STARLINK-5247,PAYLOAD,2022-12-29 14:00:01,15.64715176,0.0001356,53.217,194.4803,60.646,69.1254,-0.012681,-0.01135881,0.0,0 STARLINK-5247,1 54203U 22141AY  22363.58334491 -.01135881  00000-0 -12681-1 0  9995,2 54203  53.2170 194.4803 0001356  60.6460  69.1254 15.64715176  1304,6752.195,92.03,374.976,373.144,0.0
54203.0,STARLINK-5247,PAYLOAD,2022-12-29 22:00:00,15.63901273,0.0001264999999999,53.2171,192.8548,81.0179,126.9862,-0.013094,-0.01135385,0.0,0 STARLINK-5247,1 54203U 22141AY  22363.91667824 -.01135385  00000-0 -13094-1 0  9999,2 54203  53.2171 192.8548 0001265  81.0179 126.9862 15.63901273 10150,6754.538000000001,92.077,377.257,375.548,0.0
54203.0,STARLINK-5247,PAYLOAD,2022-12-30 14:00:01,15.62279767,0.0001261,53.2171,189.6027,47.5048,314.0327,-0.0140729999999999,-0.01143652,0.0,0 STARLINK-5247,1 54203U 22141AY  22364.58334491 -.01143652  00000-0 -14073-1 0  9998,2 54203  53.2171 189.6027 0001261  47.5048 314.0327 15.62279767 10267,6759.21,92.173,381.92800000000005,380.223,0.0
54203.0,STARLINK-5247,PAYLOAD,2022-12-31 14:00:01,15.59837201,0.0001296999999999,53.2171,184.7428,60.9865,163.5195,-0.015424,-0.01140271,0.0,0 STARLINK-5247,1 54203U 22141AY  22365.58334491 -.01140271  00000-0 -15424-1 0  9994,2 54203  53.2171 184.7428 0001297  60.9865 163.5195 15.59837201 10419,6766.265,92.317,389.007,387.252,0.0
54203.0,STARLINK-5247,PAYLOAD,2022-12-31 22:00:00,15.59027838,0.0001167999999999,53.217,183.129,68.6854,228.1842,-0.016005,-0.01146357,0.0,0 STARLINK-5247,1 54203U 22141AY  22365.91667824 -.01146357  00000-0 -16005-1 0  9997,2 54203  53.2170 183.1290 0001168  68.6854 228.1842 15.59027838  1300,6768.606,92.365,391.262,389.681,0.0
54203.0,STARLINK-5247,PAYLOAD,2023-01-01 14:00:01,15.57402162,0.0001419,53.2168,179.9007,50.6468,28.0238,-0.017063,-0.01148768,0.0,0 STARLINK-5247,1 54203U 22141AY  23001.58334491 -.01148768  00000-0 -17063-1 0  9992,2 54203  53.2168 179.9007 0001419  50.6468  28.0238 15.57402162 10577,6773.316,92.462,396.142,394.22,0.0
54203.0,STARLINK-5247,PAYLOAD,2023-01-02 00:00:00,15.56372745,0.0001193999999999,53.2172,177.8892,74.0162,181.2982,-0.017425,-0.01130449,0.0,0 STARLINK-5247,1 54203U 22141AY  23002.00001157 -.01130449  00000-0 -17425-1 0  9999,2 54203  53.2172 177.8892 0001194  74.0162 181.2982 15.56372745  1303,6776.302,92.523,398.976,397.358,0.0
54203.0,STARLINK-5247,PAYLOAD,2023-01-02 14:00:01,15.54969197,0.000121,53.2171,175.0763,54.3629,229.6698,-0.018857,-0.01158055,0.0,0 STARLINK-5247,1 54203U 22141AY  23002.58334491 -.01158055  00000-0 -18857-1 0  9995,2 54203  53.2171 175.0763 0001210  54.3629 229.6698 15.54969197 10736,6780.379,92.606,403.065,401.424,0.0
54203.0,STARLINK-5247,PAYLOAD,2023-01-02 22:00:00,15.54142634,0.0001291,53.217,173.4738,49.8742,300.6635,-0.019118,-0.0114068,0.0,0 STARLINK-5247,1 54203U 22141AY  23002.91667824 -.01140680  00000-0 -19118-1 0  9997,2 54203  53.2170 173.4738 0001291  49.8742 300.6635 15.54142634  1306,6782.783,92.656,405.524,403.772,0.0
54203.0,STARLINK-5247,PAYLOAD,2023-01-03 14:00:01,15.52507305,0.0001613,53.217,170.2694,43.1104,77.4985,-0.020089,-0.01130241,0.0,0 STARLINK-5247,1 54203U 22141AY  23003.58334491 -.01130241  00000-0 -20089-1 0  9993,2 54203  53.2170 170.2694 0001613  43.1104  77.4985 15.52507305  1304,6787.545,92.753,410.505,408.315,0.0
54203.0,STARLINK-5247,PAYLOAD,2023-01-03 22:00:00,15.51693599,0.0001495,53.2168,168.6728,57.9829,126.1905,-0.020645,-0.0112797,0.0,0 STARLINK-5247,1 54203U 22141AY  23003.91667824 -.01127970  00000-0 -20645-1 0  9992,2 54203  53.2168 168.6728 0001495  57.9829 126.1905 15.51693599 10938,6789.918000000002,92.802,412.798,410.768,0.0
54203.0,STARLINK-5247,PAYLOAD,2023-01-04 14:00:01,15.50045947,0.0001738,53.2167,165.4802,41.0718,267.3848,-0.0044075,-0.00244362,0.0,0 STARLINK-5247,1 54203U 22141AY  23004.58335648 -.00244362  00000-0 -44075-2 0  9990,2 54203  53.2167 165.4802 0001738  41.0718 267.3848 15.50045947 11040,6794.729,92.9,417.775,415.413,0.0
54203.0,STARLINK-5247,PAYLOAD,2023-01-04 22:00:00,15.49849319,0.0002023,53.2131,163.8944,68.1984,301.2026,0.00074075,0.00041763,0.0,0 STARLINK-5247,1 54203U 22141AY  23004.91667824  .00041763  00000-0  74075-3 0  9993,2 54203  53.2131 163.8944 0002023  68.1984 301.2026 15.49849319 11097,6795.303000000001,92.912,418.543,415.794,0.0
54203.0,STARLINK-5247,PAYLOAD,2023-01-05 14:00:01,15.4988326,0.0002014,53.2138,160.7069,75.4133,55.7613,-0.00015701,-9.352e-05,0.0,0 STARLINK-5247,1 54203U 22141AY  23005.58334491 -.00009352  00000-0 -15701-3 0  9999,2 54203  53.2138 160.7069 0002014  75.4133  55.7613 15.49883260  1304,6795.204000000002,92.91,418.43800000000016,415.701,0.0
54203.0,STARLINK-5247,PAYLOAD,2023-01-05 20:00:01,15.49857548,0.0002044,53.2139,159.5133,70.1526,16.708,0.0010875,0.000617,0.0,0 STARLINK-5247,1 54203U 22141AY  23005.83334491  .00061700  00000-0  10875-2 0  9996,2 54203  53.2139 159.5133 0002044  70.1526  16.7080 15.49857548  1309,6795.279,92.912,418.533,415.755,0.0
54203.0,STARLINK-5247,PAYLOAD,2023-01-06 06:00:00,15.49875528,0.0001859,53.2138,157.5198,77.7921,175.2278,5.4608e-05,2.647e-05,0.0,0 STARLINK-5247,1 54203U 22141AY  23006.25001157  .00002647  00000-0  54608-4 0  9992,2 54203  53.2138 157.5198 0001859  77.7921 175.2278 15.49875528 11299,6795.227,92.911,418.355,415.829,0.0
54203.0,STARLINK-5247,PAYLOAD,2023-01-06 22:00:00,15.49823045,0.0001842,53.2133,154.3357,66.6979,308.0888,0.00093994,0.00053142,0.0,0 STARLINK-5247,1 54203U 22141AY  23006.91667824  .00053142  00000-0  93994-3 0  9990,2 54203  53.2133 154.3357 0001842  66.6979 308.0888 15.49823045 11401,6795.38,92.914,418.497,415.994,0.0
54203.0,STARLINK-5247,PAYLOAD,2023-01-07 06:00:00,15.49830239,0.0001746,53.2135,152.7409,74.9285,0.7273,0.0015032,0.00085637,0.0,0 STARLINK-5247,1 54203U 22141AY  23007.25001157  .00085637  00000-0  15032-2 0  9999,2 54203  53.2135 152.7409 0001746  74.9285   0.7273 15.49830239  1303,6795.359,92.913,418.411,416.038,0.0
54203.0,STARLINK-5247,PAYLOAD,2023-01-07 22:00:00,15.49904344,0.0001849,53.2135,149.5567,65.6445,131.8265,0.00059252,0.00033344,0.0,0 STARLINK-5247,1 54203U 22141AY  23007.91667824  .00033344  00000-0  59252-3 0  9992,2 54203  53.2135 149.5567 0001849  65.6445 131.8265 15.49904344 11555,6795.143,92.909,418.264,415.751,0.0
54203.0,STARLINK-5247,PAYLOAD,2023-01-08 00:00:00,15.49929912,0.0001818,53.2136,149.1577,67.0008,235.6999,-0.00022249,-0.00013079,0.0,0 STARLINK-5247,1 54203U 22141AY  23008.00001157 -.00013079  00000-0 -22249-3 0  9995,2 54203  53.2136 149.1577 0001818  67.0008 235.6999 15.49929912  1307,6795.068,92.907,418.168,415.698,0.0
54203.0,STARLINK-5247,PAYLOAD,2023-01-08 11:04:48,15.49938163,0.0001841,53.2142,146.9507,70.0454,290.0754,0.00054154,0.00030462,0.0,0 STARLINK-5247,1 54203U 22141AY  23008.46167545  .00030462  00000-0  54154-3 0  9992,2 54203  53.2142 146.9507 0001841  70.0454 290.0754 15.49938163 11412,6795.044,92.907,418.16,415.658,0.0
54203.0,STARLINK-5247,PAYLOAD,2023-01-08 15:43:22,15.49941496,0.0001876,53.2142,146.0259,68.8213,291.2997,0.00045571,0.00025549,0.0,0 STARLINK-5247,1 54203U 22141AY  23008.65512323  .00025549  00000-0  45571-3 0  9994,2 54203  53.2142 146.0259 0001876  68.8213 291.2997 15.49941496 11676,6795.0340000000015,92.907,418.174,415.624,0.0
